CELESTIS-17 & SHERPA-FX1
1 47486U 21006CB  26068.64311433  .00007207  00000+0  24301-3 0  9993
2 47486  97.2397 112.1052 0006630 178.1385 181.9882 15.30994801284065
STARLINK-34510          
1 64596U 25137C   26068.89012468  .00028003  00000+0  95347-3 0  9991
2 64596  53.1574 334.4486 0001099 105.7139 254.3983 15.30218974 40765
