[{"OBJECT_NAME":"CELESTIS-17 & SHERPA-FX1","OBJECT_ID":"2021-006CB","EPOCH":"2026-03-09T15:26:05.078112","MEAN_MOTION":15.30994801,"ECCENTRICITY":0.000663,"INCLINATION":97.2397,"RA_OF_ASC_NODE":112.1052,"ARG_OF_PERICENTER":178.1385,"MEAN_ANOMALY":181.9882,"EPHEMERIS_TYPE":0,"CLASSIFICATION_TYPE":"U","NORAD_CAT_ID":47486,"ELEMENT_SET_NO":999,"REV_AT_EPOCH":28406,"BSTAR":0.00024301,"MEAN_MOTION_DOT":7.207e-5,"MEAN_MOTION_DDOT":0},{"OBJECT_NAME":"STARLINK-34510","OBJECT_ID":"2025-137C","EPOCH":"2026-03-09T21:21:46.772352","MEAN_MOTION":15.30218975,"ECCENTRICITY":0.00010989,"INCLINATION":53.1574,"RA_OF_ASC_NODE":334.4486,"ARG_OF_PERICENTER":105.7139,"MEAN_ANOMALY":254.3983,"EPHEMERIS_TYPE":0,"CLASSIFICATION_TYPE":"U","NORAD_CAT_ID":64596,"ELEMENT_SET_NO":999,"REV_AT_EPOCH":4076,"BSTAR":0.00095347492,"MEAN_MOTION_DOT":0.00028003,"MEAN_MOTION_DDOT":0}]
